IRIDIUM 7               
1 24793U 97020B   24238.45591224  .00000785  00000+0  26705-3 0  9996
2 24793  86.3954 300.8253 0002299  87.3023 272.8436 14.35374786429463
IRIDIUM 5               
1 24795U 97020D   24238.87218381  .00007304  00000+0  67574-3 0  9997
2 24795  86.3918 219.2492 0122701 114.1690 247.2422 14.88732495441461
IRIDIUM 4               
1 24796U 97020E   24238.69673373  .00000740  00000+0  24648-3 0  9996
2 24796  86.3943 297.7949 0002382  92.8729 267.2741 14.36302197430071
IRIDIUM 914             
1 24836U 97030A   24238.74915877  .00000933  00000+0  28900-3 0  9995
2 24836  86.3941 307.2574 0003899 103.2860 256.8774 14.40188456426690
IRIDIUM 16              
1 24841U 97030F   24238.54873457  .00001105  00000+0  35865-3 0  9996
2 24841  86.4076 329.4996 0001570  25.0105 335.1169 14.38080962424504
IRIDIUM 911             
1 24842U 97030G   24238.61389054  .00001412  00000+0  38441-3 0  9994
2 24842  86.4500 328.5369 0014409  12.0530 348.1015 14.46776416432333
IRIDIUM 17              
1 24870U 97034B   24238.63132007  .00001252  00000+0  41455-3 0  9996
2 24870  86.4010 359.0256 0000595 126.8245 233.3007 14.37173098421120
IRIDIUM 920             
1 24871U 97034C   24238.80818019  .00000987  00000+0  30172-3 0  9998
2 24871  86.4024 338.8792 0010757 346.9339  13.1580 14.40886703424295
